NORAD_CAT_ID,OBJECT_NAME,OBJECT_TYPE,EPOCH,MEAN_MOTION,ECCENTRICITY,INCLINATION,RA_OF_ASC_NODE,ARG_OF_PERICENTER,MEAN_ANOMALY,BSTAR,MEAN_MOTION_DOT,MEAN_MOTION_DDOT,TLE_LINE0,TLE_LINE1,TLE_LINE2,SEMIMAJOR_AXIS,PERIOD,APOGEE,PERIGEE,DECAYED
52620.0,STARLINK-3975,PAYLOAD,2023-01-15 01:48:40,15.08843212,0.0002495,53.2176,44.9413,47.61,312.5103,0.00053961,8.311e-05,0.0,0 STARLINK-3975,1 52620U 22052Y   23015.07546788  .00008311  00000-0  53961-3 0  9992,2 52620  53.2176  44.9413 0002495  47.6100 312.5103 15.08843212 37609,6917.871,95.437,541.462,538.01,0.0
52620.0,STARLINK-3975,PAYLOAD,2023-01-15 08:10:12,15.08849005,0.0002463999999999,53.2176,43.7518,49.0159,311.1046,0.00070818,0.00011003,0.0,0 STARLINK-3975,1 52620U 22052Y   23015.34042723  .00011003  00000-0  70818-3 0  9994,2 52620  53.2176  43.7518 0002464  49.0159 311.1046 15.08849005 37267,6917.853,95.437,541.422,538.013,0.0
52620.0,STARLINK-3975,PAYLOAD,2023-01-15 19:17:54,15.08847032,0.0002583999999999,53.218,41.6725,48.6148,311.5066,0.0005599,8.636e-05,0.0,0 STARLINK-3975,1 52620U 22052Y   23015.80410737  .00008636  00000-0  55990-3 0  9991,2 52620  53.2180  41.6725 0002584  48.6148 311.5066 15.08847032 37337,6917.859,95.437,541.511,537.936,0.0
52620.0,STARLINK-3975,PAYLOAD,2023-01-16 11:11:45,15.08879059,0.0002264,53.2172,38.6951,61.5275,298.5945,0.001455,0.00022969,0.0,0 STARLINK-3975,1 52620U 22052Y   23016.46649693  .00022969  00000-0  14550-2 0  9990,2 52620  53.2172  38.6951 0002264  61.5275 298.5945 15.08879059 37812,6917.761,95.435,541.192,538.06,0.0
52620.0,STARLINK-3975,PAYLOAD,2023-01-17 01:30:14,15.08815649,0.0002254999999999,53.2156,36.0188,75.6037,284.5205,-0.00084363,-0.00013681,0.0,0 STARLINK-3975,1 52620U 22052Y   23017.06266949 -.00013681  00000-0 -84363-3 0  9999,2 52620  53.2156  36.0188 0002255  75.6037 284.5205 15.08815649 37909,6917.955,95.439,541.38,538.26,0.0
52620.0,STARLINK-3975,PAYLOAD,2023-01-17 07:51:47,15.08814025,0.0002360999999999,53.2152,34.8312,74.6289,285.4964,-0.00044042,-7.286e-05,0.0,0 STARLINK-3975,1 52620U 22052Y   23017.32763490 -.00007286  00000-0 -44042-3 0  9995,2 52620  53.2152  34.8312 0002361  74.6289 285.4964 15.08814025 37567,6917.96,95.439,541.4580000000001,538.191,0.0
52620.0,STARLINK-3975,PAYLOAD,2023-01-17 23:45:39,15.088389499999998,0.0002039,53.2174,31.8565,75.9085,284.2134,0.001393,0.00021951,0.0,0 STARLINK-3975,1 52620U 22052Y   23017.99004209  .00021951  00000-0  13930-2 0  9998,2 52620  53.2174  31.8565 0002039  75.9085 284.2134 15.08838950 38041,6917.884,95.438,541.159,538.3380000000001,0.0
52620.0,STARLINK-3975,PAYLOAD,2023-01-18 07:42:34,15.08880965,0.0002012,53.2178,30.3704,78.3399,281.7819,0.00268,0.00042671,0.0,0 STARLINK-3975,1 52620U 22052Y   23018.32123610  .00042671  00000-0  26800-2 0  9996,2 52620  53.2178  30.3704 0002012  78.3399 281.7819 15.08880965 38090,6917.755,95.435,541.012,538.2280000000001,0.0
52620.0,STARLINK-3975,PAYLOAD,2023-01-19 01:11:48,15.08884669,0.0001518,53.218,27.1007,70.319,289.7966,0.0020944,0.00033243,0.0,0 STARLINK-3975,1 52620U 22052Y   23019.04986817  .00033243  00000-0  20944-2 0  9990,2 52620  53.2180  27.1007 0001518  70.3190 289.7966 15.08884669 38203,6917.744000000001,95.435,540.659,538.559,0.0
52620.0,STARLINK-3975,PAYLOAD,2023-01-19 05:57:57,15.08871605,0.0001743,53.2178,26.2099,81.9205,278.1985,0.00087128,0.00013618,0.0,0 STARLINK-3975,1 52620U 22052Y   23019.24858402  .00013618  00000-0  87128-3 0  9992,2 52620  53.2178  26.2099 0001743  81.9205 278.1985 15.08871605 38238,6917.784000000001,95.436,540.855,538.443,0.0
52620.0,STARLINK-3975,PAYLOAD,2023-01-19 23:27:11,15.08860454,0.0001773,53.2165,22.9359,101.3605,258.7586,0.00036969,5.604e-05,0.0,0 STARLINK-3975,1 52620U 22052Y   23019.97721994  .00005604  00000-0  36969-3 0  9990,2 52620  53.2165  22.9359 0001773 101.3605 258.7586 15.08860454 38343,6917.818,95.436,540.909,538.456,0.0
52620.0,STARLINK-3975,PAYLOAD,2023-01-20 08:59:30,15.08855211,0.0001838,53.2163,21.1515,102.1048,258.015,0.00066065,0.00010246,0.0,0 STARLINK-3975,1 52620U 22052Y   23020.37465893  .00010246  00000-0  66065-3 0  9997,2 52620  53.2163  21.1515 0001838 102.1048 258.0150 15.08855211 38400,6917.834,95.437,540.97,538.427,0.0
52620.0,STARLINK-3975,PAYLOAD,2023-01-20 16:56:26,15.08843898,0.0002333,53.2162,19.6669,82.7832,277.3425,0.00025719,3.808e-05,0.0,0 STARLINK-3975,1 52620U 22052Y   23020.70586588  .00003808  00000-0  25719-3 0  9996,2 52620  53.2162  19.6669 0002333  82.7832 277.3425 15.08843898 38458,6917.868,95.437,541.347,538.12,0.0
52620.0,STARLINK-3975,PAYLOAD,2023-01-20 23:17:59,15.08819185,0.0001794,53.2174,18.4748,90.9215,269.1983,-2.2106e-05,-6.4e-06,0.0,0 STARLINK-3975,1 52620U 22052Y   23020.97082854 -.00000640  00000-0 -22106-4 0  9993,2 52620  53.2174  18.4748 0001794  90.9215 269.1983 15.08819185 38496,6917.944,95.439,541.05,538.568,0.0
52620.0,STARLINK-3975,PAYLOAD,2023-01-21 07:14:55,15.08838947,0.0001829,53.2172,16.9867,91.872,268.2481,0.0011167,0.00017528,0.0,0 STARLINK-3975,1 52620U 22052Y   23021.30203090  .00017528  00000-0  11167-2 0  9992,2 52620  53.2172  16.9867 0001829  91.8720 268.2481 15.08838947 38545,6917.884,95.438,541.014,538.4830000000001,0.0
52620.0,STARLINK-3975,PAYLOAD,2023-01-21 16:47:14,15.08840363,0.0001837,53.2167,15.2031,86.992,273.1282,0.0015241,0.00024052,0.0,0 STARLINK-3975,1 52620U 22052Y   23021.69947569  .00024052  00000-0  15241-2 0  9997,2 52620  53.2167  15.2031 0001837  86.9920 273.1282 15.08840363 38606,6917.879,95.438,541.015,538.4730000000001,0.0
52620.0,STARLINK-3975,PAYLOAD,2023-01-22 16:38:01,15.08836657,0.0002130999999999,53.2181,10.7446,74.4087,285.714,0.00043111,6.579e-05,0.0,0 STARLINK-3975,1 52620U 22052Y   23022.69307857  .00006579  00000-0  43111-3 0  9990,2 52620  53.2181  10.7446 0002131  74.4087 285.7140 15.08836657 38755,6917.891,95.438,541.23,538.281,0.0
52620.0,STARLINK-3975,PAYLOAD,2023-01-23 16:28:49,15.08836853,0.0001904,53.2182,6.2812,81.6701,278.4507,0.0006071,9.386e-05,0.0,0 STARLINK-3975,1 52620U 22052Y   23023.68668411  .00009386  00000-0  60710-3 0  9999,2 52620  53.2182   6.2812 0001904  81.6701 278.4507 15.08836853 38904,6917.89,95.438,541.072,538.438,0.0
52620.0,STARLINK-3975,PAYLOAD,2023-01-24 08:22:40,15.08861892,0.0001774,53.2177,3.3099,84.9443,275.1752,0.0010765,0.00016896,0.0,0 STARLINK-3975,1 52620U 22052Y   23024.34907961  .00016896  00000-0  10765-2 0  9997,2 52620  53.2177   3.3099 0001774  84.9443 275.1752 15.08861892 39006,6917.813,95.436,540.906,538.451,0.0
52620.0,STARLINK-3975,PAYLOAD,2023-01-25 03:27:18,15.08856316,0.0001433,53.2184,359.7419,87.2873,272.8283,0.0017023,0.0002692,0.0,0 STARLINK-3975,1 52620U 22052Y   23025.14396128  .00026920  00000-0  17023-2 0  9996,2 52620  53.2184 359.7419 0001433  87.2873 272.8283 15.08856316 39124,6917.831,95.437,540.687,538.7040000000001,0.0
52620.0,STARLINK-3975,PAYLOAD,2023-01-25 05:02:41,15.08852166,0.0001431999999999,53.2183,359.4445,86.1786,273.937,0.0011637,0.00018287,0.0,0 STARLINK-3975,1 52620U 22052Y   23025.21020018  .00018287  00000-0  11637-2 0  9998,2 52620  53.2183 359.4445 0001432  86.1786 273.9370 15.08852166 38755,6917.843000000001,95.437,540.6990000000001,538.7180000000001,0.0
52620.0,STARLINK-3975,PAYLOAD,2023-01-25 14:35:00,15.08850027,0.0001605,53.2192,357.6596,88.6412,271.4764,0.00071726,0.00011149,0.0,0 STARLINK-3975,1 52620U 22052Y   23025.60763985  .00011149  00000-0  71726-3 0  9994,2 52620  53.2192 357.6596 0001605  88.6412 271.4764 15.08850027 39190,6917.85,95.437,540.825,538.604,0.0
52620.0,STARLINK-3975,PAYLOAD,2023-01-26 04:53:28,15.08859909,0.0001419,53.2185,354.9843,103.7291,256.3859,0.0020570999999999,0.0003262,0.0,0 STARLINK-3975,1 52620U 22052Y   23026.20379903  .00032620  00000-0  20571-2 0  9992,2 52620  53.2185 354.9843 0001419 103.7291 256.3859 15.08859909 38907,6917.82,95.436,540.6659999999999,538.703,0.0
52620.0,STARLINK-3975,PAYLOAD,2023-01-27 04:44:15,15.0884305,0.0001355,53.218,350.5226,91.1669,268.9479,0.00045962,7.035e-05,0.0,0 STARLINK-3975,1 52620U 22052Y   23027.19740348  .00007035  00000-0  45962-3 0  9990,2 52620  53.2180 350.5226 0001355  91.1669 268.9479 15.08843050 39433,6917.871,95.437,540.673,538.799,0.0
52620.0,STARLINK-3975,PAYLOAD,2023-01-27 07:55:01,15.08840173,0.0001371,53.2176,349.9282,90.8937,269.2212,0.00011687,1.573e-05,0.0,0 STARLINK-3975,1 52620U 22052Y   23027.32988274  .00001573  00000-0  11687-3 0  9995,2 52620  53.2176 349.9282 0001371  90.8937 269.2212 15.08840173 39076,6917.88,95.438,540.693,538.7959999999999,0.0
52620.0,STARLINK-3975,PAYLOAD,2023-01-28 02:59:39,15.08837844,0.0001395,53.2172,346.3596,93.23,266.8852,6.393100000000001e-05,7.299999999999999e-06,0.0,0 STARLINK-3975,1 52620U 22052Y   23028.12476660  .00000730  00000-0  63931-4 0  9999,2 52620  53.2172 346.3596 0001395  93.2300 266.8852 15.08837844 39577,6917.887,95.438,540.717,538.7869999999999,0.0
52620.0,STARLINK-3975,PAYLOAD,2023-01-28 04:35:02,15.08841648,0.0001438,53.2174,346.0604,87.3306,272.7851,0.00015337,2.154e-05,0.0,0 STARLINK-3975,1 52620U 22052Y   23028.19100479  .00002154  00000-0  15337-3 0  9996,2 52620  53.2174 346.0604 0001438  87.3306 272.7851 15.08841648 39206,6917.875,95.437,540.735,538.746,0.0
52620.0,STARLINK-3975,PAYLOAD,2023-01-28 20:28:54,15.08843481,0.0001489,53.2175,343.0892,75.2141,284.9016,0.00019627,2.837e-05,0.0,0 STARLINK-3975,1 52620U 22052Y   23028.85340627  .00002837  00000-0  19627-3 0  9994,2 52620  53.2175 343.0892 0001489  75.2141 284.9016 15.08843481 39308,6917.87,95.437,540.765,538.705,0.0
52620.0,STARLINK-3975,PAYLOAD,2023-01-29 04:25:49,15.08851879,0.00013,53.2168,341.6023,84.2747,275.8393,0.00037119,5.626e-05,0.0,0 STARLINK-3975,1 52620U 22052Y   23029.18460233  .00005626  00000-0  37119-3 0  9992,2 52620  53.2168 341.6023 0001300  84.2747 275.8393 15.08851879 39738,6917.844,95.437,540.608,538.81,0.0
